NORAD_CAT_ID,OBJECT_NAME,OBJECT_TYPE,EPOCH,MEAN_MOTION,ECCENTRICITY,INCLINATION,RA_OF_ASC_NODE,ARG_OF_PERICENTER,MEAN_ANOMALY,BSTAR,MEAN_MOTION_DOT,MEAN_MOTION_DDOT,TLE_LINE0,TLE_LINE1,TLE_LINE2,SEMIMAJOR_AXIS,PERIOD,APOGEE,PERIGEE,DECAYED
54184.0,STARLINK-5162,PAYLOAD,2023-12-10 12:13:30,15.08837675,0.0001339,53.2179,85.6732,93.2845,266.83,6.2315e-05,7.04e-06,0.0,0 STARLINK-5162,1 54184U 22141AD  23344.50937583  .00000704  00000-0  62315-4 0  9990,2 54184  53.2179  85.6732 0001339  93.2845 266.8300 15.08837675 62271,6917.887,95.438,540.679,538.826,0.0
54184.0,STARLINK-5162,PAYLOAD,2023-12-10 13:48:53,15.08838053,0.0001339,53.2179,85.3759,92.5324,267.5822,6.1983e-05,6.99e-06,0.0,0 STARLINK-5162,1 54184U 22141AD  23344.57561554  .00000699  00000-0  61983-4 0  9991,2 54184  53.2179  85.3759 0001339  92.5324 267.5822 15.08838053 62055,6917.886,95.438,540.678,538.825,0.0
54184.0,STARLINK-5162,PAYLOAD,2023-12-11 13:39:40,15.08841503,0.0001395,53.2184,80.9163,99.8352,260.2798,7.8408e-05,9.6e-06,0.0,0 STARLINK-5162,1 54184U 22141AD  23345.56921340  .00000960  00000-0  78408-4 0  9995,2 54184  53.2184  80.9163 0001395  99.8352 260.2798 15.08841503 62207,6917.876,95.437,540.706,538.776,0.0
54184.0,STARLINK-5162,PAYLOAD,2023-12-12 11:55:04,15.08837958,0.000142,53.2185,76.7513,96.6972,263.4182,7.5547e-05,9.15e-06,0.0,0 STARLINK-5162,1 54184U 22141AD  23346.49657727  .00000915  00000-0  75547-4 0  9994,2 54184  53.2185  76.7513 0001420  96.6972 263.4182 15.08837958 62573,6917.887,95.438,540.734,538.769,0.0
54184.0,STARLINK-5162,PAYLOAD,2023-12-13 13:21:13,15.08846913,0.0001431,53.2184,71.9914,81.715,278.4004,0.00011607,1.56e-05,0.0,0 STARLINK-5162,1 54184U 22141AD  23347.55641115  .00001560  00000-0  11607-3 0  9999,2 54184  53.2184  71.9914 0001431  81.7150 278.4004 15.08846913 62502,6917.859,95.437,540.714,538.734,0.0
54184.0,STARLINK-5162,PAYLOAD,2023-12-14 11:36:38,15.08840889,0.0001863,53.22,67.8295,66.1668,293.9519,1.5887e-05,-3.5e-07,0.0,0 STARLINK-5162,1 54184U 22141AD  23348.48378092 -.00000035  00000-0  15887-4 0  9995,2 54184  53.2200  67.8295 0001863  66.1668 293.9519 15.08840889 62876,6917.878,95.437,541.031,538.454,0.0
54184.0,STARLINK-5162,PAYLOAD,2023-12-14 13:12:01,15.0884261,0.0001829,53.2198,67.5281,62.4213,297.6965,6.1172e-05,6.86e-06,0.0,0 STARLINK-5162,1 54184U 22141AD  23348.55001784  .00000686  00000-0  61172-4 0  9993,2 54184  53.2198  67.5281 0001829  62.4213 297.6965 15.08842610 62657,6917.872,95.437,541.003,538.472,0.0
54184.0,STARLINK-5162,PAYLOAD,2023-12-15 11:27:25,15.08846351,0.0002047,53.2203,63.3646,57.8631,302.256,-3.0676e-05,-7.77e-06,0.0,0 STARLINK-5162,1 54184U 22141AD  23349.47737887 -.00000777  00000-0 -30676-4 0  9993,2 54184  53.2203  63.3646 0002047  57.8631 302.2560 15.08846351 62793,6917.861,95.437,541.142,538.31,0.0
54184.0,STARLINK-5162,PAYLOAD,2023-12-16 11:18:12,15.08842244,0.0001979,53.2189,58.9107,58.4399,301.6786,6.389e-05,7.29e-06,0.0,0 STARLINK-5162,1 54184U 22141AD  23350.47097990  .00000729  00000-0  63890-4 0  9998,2 54184  53.2189  58.9107 0001979  58.4399 301.6786 15.08842244 63172,6917.874,95.437,541.108,538.369,0.0
54184.0,STARLINK-5162,PAYLOAD,2023-12-17 11:08:59,15.08838335,0.0001757,53.2185,54.4508,71.1501,288.9682,5.3389e-05,5.62e-06,0.0,0 STARLINK-5162,1 54184U 22141AD  23351.46458259  .00000562  00000-0  53389-4 0  9994,2 54184  53.2185  54.4508 0001757  71.1501 288.9682 15.08838335 63094,6917.885,95.438,540.966,538.535,0.0
54184.0,STARLINK-5162,PAYLOAD,2023-12-17 23:52:04,15.08843005,0.0001573,53.2184,52.0733,99.0046,261.1124,0.00013126,1.802e-05,0.0,0 STARLINK-5162,1 54184U 22141AD  23351.99449610  .00001802  00000-0  13126-3 0  9995,2 54184  53.2184  52.0733 0001573  99.0046 261.1124 15.08843005 63405,6917.871,95.437,540.824,538.648,0.0
54184.0,STARLINK-5162,PAYLOAD,2023-12-18 10:59:46,15.08848133,0.000161,53.2188,49.9921,106.1389,253.978,0.00016594,2.354e-05,0.0,0 STARLINK-5162,1 54184U 22141AD  23352.45817138  .00002354  00000-0  16594-3 0  9996,2 54184  53.2188  49.9921 0001610 106.1389 253.9780 15.08848133 63241,6917.856,95.437,540.834,538.607,0.0
54184.0,STARLINK-5162,PAYLOAD,2023-12-19 10:50:33,15.08839922,0.0001663,53.2186,45.5318,110.6648,249.4522,9.4915e-06,-1.37e-06,0.0,0 STARLINK-5162,1 54184U 22141AD  23353.45177849 -.00000137  00000-0  94915-5 0  9998,2 54184  53.2186  45.5318 0001663 110.6648 249.4522 15.08839922 63629,6917.881,95.438,540.896,538.595,0.0
54184.0,STARLINK-5162,PAYLOAD,2023-12-20 10:41:21,15.08832322,0.0001533,53.2183,41.0692,100.7645,259.352,-6.2951e-05,-1.289e-05,0.0,0 STARLINK-5162,1 54184U 22141AD  23354.44538499 -.00001289  00000-0 -62951-4 0  9994,2 54184  53.2183  41.0692 0001533 100.7645 259.3520 15.08832322 63776,6917.904,95.438,540.829,538.708,0.0
54184.0,STARLINK-5162,PAYLOAD,2023-12-21 08:56:44,15.08845811,0.0001544,53.2178,36.9072,80.3856,279.7311,0.00020184,2.926e-05,0.0,0 STARLINK-5162,1 54184U 22141AD  23355.37274250  .00002926  00000-0  20184-3 0  9997,2 54184  53.2178  36.9072 0001544  80.3856 279.7311 15.08845811 63911,6917.863,95.437,540.796,538.66,0.0
54184.0,STARLINK-5162,PAYLOAD,2023-12-22 10:22:55,15.08843513,0.0001506,53.2188,32.1466,87.2257,272.8908,0.00014035,1.947e-05,0.0,0 STARLINK-5162,1 54184U 22141AD  23356.43258718  .00001947  00000-0  14035-3 0  9996,2 54184  53.2188  32.1466 0001506  87.2257 272.8908 15.08843513 64077,6917.87,95.437,540.776,538.693,0.0
54184.0,STARLINK-5162,PAYLOAD,2023-12-23 08:38:19,15.08841096,0.0002011,53.2192,27.9871,73.1047,287.0165,-3.1685e-05,-7.92e-06,0.0,0 STARLINK-5162,1 54184U 22141AD  23357.35995236 -.00000792  00000-0 -31685-4 0  9991,2 54184  53.2192  27.9871 0002011  73.1047 287.0165 15.08841096 64210,6917.877,95.437,541.133,538.351,0.0
54184.0,STARLINK-5162,PAYLOAD,2023-12-24 11:39:52,15.0885066,0.000174,53.2192,22.9327,92.8113,267.3078,0.0001031,1.354e-05,0.0,0 STARLINK-5162,1 54184U 22141AD  23358.48602722  .00001354  00000-0  10310-3 0  9995,2 54184  53.2192  22.9327 0001740  92.8113 267.3078 15.08850660 64380,6917.848,95.437,540.917,538.509,0.0
54184.0,STARLINK-5162,PAYLOAD,2023-12-25 01:58:21,15.08839314,0.0001537,53.2166,20.2486,90.4352,269.6817,1.3246e-05,-7.7e-07,0.0,0 STARLINK-5162,1 54184U 22141AD  23359.08219231 -.00000077  00000-0  13246-4 0  9995,2 54184  53.2166  20.2486 0001537  90.4352 269.6817 15.08839314 64470,6917.882,95.438,540.811,538.684,0.0
54184.0,STARLINK-5162,PAYLOAD,2023-12-25 08:19:53,15.08844395,0.0001728,53.2178,19.0658,103.1361,256.9824,0.00011188,1.493e-05,0.0,0 STARLINK-5162,1 54184U 22141AD  23359.34714902  .00001493  00000-0  11188-3 0  9993,2 54184  53.2178  19.0658 0001728 103.1361 256.9824 15.08844395 64285,6917.867,95.437,540.927,538.537,0.0
54184.0,STARLINK-5162,PAYLOAD,2023-12-26 01:49:08,15.08836424,0.0001599,53.2176,15.7966,92.1812,267.9363,-9.8011e-05,-1.847e-05,0.0,0 STARLINK-5162,1 54184U 22141AD  23360.07579428 -.00001847  00000-0 -98011-4 0  9993,2 54184  53.2176  15.7966 0001599  92.1812 267.9363 15.08836424 64624,6917.891,95.438,540.862,538.65,0.0
54184.0,STARLINK-5162,PAYLOAD,2023-12-26 11:21:27,15.08840523,0.0001573,53.2186,14.0048,101.1897,258.9272,5.226e-06,-2.05e-06,0.0,0 STARLINK-5162,1 54184U 22141AD  23360.47323374 -.00000205  00000-0  52260-5 0  9997,2 54184  53.2186  14.0048 0001573 101.1897 258.9272 15.08840523 64459,6917.879,95.438,540.832,538.656,0.0
54184.0,STARLINK-5162,PAYLOAD,2023-12-27 06:26:05,15.08838909,0.0001652,53.2182,10.4389,108.2602,251.8571,0.000127,1.734e-05,0.0,0 STARLINK-5162,1 54184U 22141AD  23361.26811389  .00001734  00000-0  12700-3 0  9993,2 54184  53.2182  10.4389 0001652 108.2602 251.8571 15.08838909 64801,6917.884,95.438,540.892,538.606,0.0
54184.0,STARLINK-5162,PAYLOAD,2023-12-28 07:52:15,15.08835969,0.0001545,53.2178,5.6814,92.9559,267.161,0.00014925,2.088e-05,0.0,0 STARLINK-5162,1 54184U 22141AD  23362.32795804  .00002088  00000-0  14925-3 0  9998,2 54184  53.2178   5.6814 0001545  92.9559 267.1610 15.08835969 64960,6917.893,95.438,540.827,538.689,0.0
54184.0,STARLINK-5162,PAYLOAD,2023-12-29 07:43:02,15.08843003,0.0001732,53.2197,1.2213,86.2583,273.8607,6.622e-05,7.66e-06,0.0,0 STARLINK-5162,1 54184U 22141AD  23363.32155865  .00000766  00000-0  66220-4 0  9993,2 54184  53.2197   1.2213 0001732  86.2583 273.8607 15.08843003 64886,6917.871,95.437,540.934,538.538,0.0
54184.0,STARLINK-5162,PAYLOAD,2023-12-30 04:23:03,15.08839653,0.0001901,53.2199,357.3558,75.0225,285.0977,7.2086e-05,8.59e-06,0.0,0 STARLINK-5162,1 54184U 22141AD  23364.18268077  .00000859  00000-0  72086-4 0  9998,2 54184  53.2199 357.3558 0001901  75.0225 285.0977 15.08839653 65244,6917.881,95.438,541.062,538.431,0.0
54184.0,STARLINK-5162,PAYLOAD,2023-12-30 09:09:12,15.08848941,0.0001883,53.2201,356.4615,86.2809,273.8399,1.5168e-05,-4.7e-07,0.0,0 STARLINK-5162,1 54184U 22141AD  23364.38139562 -.00000047  00000-0  15168-4 0  9994,2 54184  53.2201 356.4615 0001883  86.2809 273.8399 15.08848941 65044,6917.853,95.437,541.021,538.415,0.0
54184.0,STARLINK-5162,PAYLOAD,2023-12-31 08:59:59,15.08842911,0.0001989,53.2213,351.9978,76.9503,283.1711,5.5404e-05,5.94e-06,0.0,0 STARLINK-5162,1 54184U 22141AD  23365.37499965  .00000594  00000-0  55404-4 0  9993,2 54184  53.2213 351.9978 0001989  76.9503 283.1711 15.08842911 65428,6917.871,95.437,541.112,538.361,0.0
54184.0,STARLINK-5162,PAYLOAD,2024-01-01 04:04:37,15.0884026,0.0001682,53.22,348.43,92.6529,267.4655,-2.7948e-05,-7.33e-06,0.0,0 STARLINK-5162,1 54184U 22141AD  24001.16988243 -.00000733  00000-0 -27948-4 0  9999,2 54184  53.2200 348.4300 0001682  92.6529 267.4655 15.08840260 65547,6917.88,95.438,540.908,538.581,0.0
54184.0,STARLINK-5162,PAYLOAD,2024-01-01 08:50:47,15.0883968,0.0001723,53.22,347.5387,101.8448,258.2737,-2.6289e-05,-7.06e-06,0.0,0 STARLINK-5162,1 54184U 22141AD  24001.36860268 -.00000706  00000-0 -26289-4 0  9994,2 54184  53.2200 347.5387 0001723 101.8448 258.2737 15.08839680 65342,6917.881,95.438,540.938,538.554,0.0
